start=new Date('2023-03-29T00:00:00.000Z').valueOf();
sats=[{"MEAN_MOTION_DDOT":"0.0000000000000","MEAN_ELEMENT_THEORY":"SGP4","DECAY_DATE":null,"LAUNCH_DATE":"2020-02-17","GP_ID":"229063546","APOAPSIS":"547.769","RCS_SIZE":"LARGE","REF_FRAME":"TEME","CENTER_NAME":"EARTH","PERIOD":"95.587","FILE":"3873921","RA_OF_ASC_NODE":"181.2835","ARG_OF_PERICENTER":"71.4125","BSTAR":"0.00237300000000","CLASSIFICATION_TYPE":"U","SITE":"AFETR","ELEMENT_SET_NO":"999","EPOCH":"2023-03-28T17:29:26.460672","EPHEMERIS_TYPE":"0","NORAD_CAT_ID":"45207","INCLINATION":"53.0518","TLE_LINE2":"2 45207  53.0518 181.2835 0001173  71.4125 288.6991 15.06483865172797","REV_AT_EPOCH":"17279","MEAN_MOTION":"15.06483865","PERIAPSIS":"546.144","OBJECT_ID":"2020-012AF","COUNTRY_CODE":"US","MEAN_MOTION_DOT":"0.00035322","OBJECT_TYPE":"PAYLOAD","TIME_SYSTEM":"UTC","SEMIMAJOR_AXIS":"6925.092","TLE_LINE1":"1 45207U 20012AF  23087.72877848  .00035322  00000-0  23730-2 0  9996","ECCENTRICITY":"0.00011730","OBJECT_NAME":"STARLINK-1210","MEAN_ANOMALY":"288.6991"},{"TLE_LINE2":"2 45208  52.9990 180.1276 0001191  76.8502 150.6168 15.21303086  1300","OBJECT_ID":"2020-012AG","REV_AT_EPOCH":"130","MEAN_MOTION":"15.21303086","PERIAPSIS":"501.092","TLE_LINE1":"1 45208U 20012AG  23087.91667824  .01311405  00000-0  53431-1 0  9999","TIME_SYSTEM":"UTC","COUNTRY_CODE":"US","MEAN_MOTION_DOT":"0.01311405","OBJECT_TYPE":"PAYLOAD","SEMIMAJOR_AXIS":"6880.046","OBJECT_NAME":"STARLINK-1211","MEAN_ANOMALY":"150.6168","ECCENTRICITY":"0.00011910","LAUNCH_DATE":"2020-02-17","RCS_SIZE":"LARGE","GP_ID":"229064275","APOAPSIS":"502.730","MEAN_MOTION_DDOT":"0.0000000000000","DECAY_DATE":null,"MEAN_ELEMENT_THEORY":"SGP4","REF_FRAME":"TEME","CENTER_NAME":"EARTH","ARG_OF_PERICENTER":"76.8502","CLASSIFICATION_TYPE":"U","BSTAR":"0.05343100000000","FILE":"3873921","PERIOD":"94.656","RA_OF_ASC_NODE":"180.1276","EPHEMERIS_TYPE":"0","NORAD_CAT_ID":"45208","INCLINATION":"52.9990","SITE":"AFETR","ELEMENT_SET_NO":"999","EPOCH":"2023-03-28T22:00:00.999936"},{"OBJECT_TYPE":"PAYLOAD","COUNTRY_CODE":"US","MEAN_MOTION_DOT":"0.00039059","TIME_SYSTEM":"UTC","SEMIMAJOR_AXIS":"6924.898","TLE_LINE1":"1 45210U 20012AJ  23087.73247626  .00039059  00000-0  26162-2 0  9999","ECCENTRICITY":"0.00015130","OBJECT_NAME":"STARLINK-1219","MEAN_ANOMALY":"302.3732","TLE_LINE2":"2 45210  53.0513 181.2681 0001513  57.7404 302.3732 15.06547021172680","MEAN_MOTION":"15.06547021","REV_AT_EPOCH":"17268","PERIAPSIS":"545.715","OBJECT_ID":"2020-012AJ","PERIOD":"95.583","FILE":"3873921","RA_OF_ASC_NODE":"181.2681","ARG_OF_PERICENTER":"57.7404","BSTAR":"0.00261620000000","CLASSIFICATION_TYPE":"U","ELEMENT_SET_NO":"999","SITE":"AFETR","EPOCH":"2023-03-28T17:34:45.948864","EPHEMERIS_TYPE":"0","NORAD_CAT_ID":"45210","INCLINATION":"53.0513","MEAN_MOTION_DDOT":"0.0000000000000","MEAN_ELEMENT_THEORY":"SGP4","DECAY_DATE":null,"LAUNCH_DATE":"2020-02-17","APOAPSIS":"547.811","GP_ID":"229063045","RCS_SIZE":"LARGE","REF_FRAME":"TEME","CENTER_NAME":"EARTH"},{"SITE":"AFETR","ELEMENT_SET_NO":"999","EPOCH":"2023-03-28T18:22:34.650912","EPHEMERIS_TYPE":"0","NORAD_CAT_ID":"45212","INCLINATION":"53.0510","FILE":"3873921","PERIOD":"95.585","RA_OF_ASC_NODE":"181.1178","ARG_OF_PERICENTER":"74.4040","BSTAR":"0.00239710000000","CLASSIFICATION_TYPE":"U","CENTER_NAME":"EARTH","REF_FRAME":"TEME","MEAN_MOTION_DDOT":"0.0000000000000","DECAY_DATE":null,"MEAN_ELEMENT_THEORY":"SGP4","LAUNCH_DATE":"2020-02-17","RCS_SIZE":"LARGE","APOAPSIS":"547.764","GP_ID":"229062796","ECCENTRICITY":"0.00012780","OBJECT_NAME":"STARLINK-1231","MEAN_ANOMALY":"285.7090","TIME_SYSTEM":"UTC","COUNTRY_CODE":"US","OBJECT_TYPE":"PAYLOAD","MEAN_MOTION_DOT":"0.00035711","SEMIMAJOR_AXIS":"6925.014","TLE_LINE1":"1 45212U 20012AL  23087.76567883  .00035711  00000-0  23971-2 0  9990","REV_AT_EPOCH":"17275","MEAN_MOTION":"15.06509240","PERIAPSIS":"545.994","OBJECT_ID":"2020-012AL","TLE_LINE2":"2 45212  53.0510 181.1178 0001278  74.4040 285.7090 15.06509240172759"},{"TLE_LINE1":"1 45213U 20012AM  23087.69124320  .00046243  00000-0  74459-3 0  9998","SEMIMAJOR_AXIS":"6787.540","COUNTRY_CODE":"US","MEAN_MOTION_DOT":"0.00046243","OBJECT_TYPE":"PAYLOAD","TIME_SYSTEM":"UTC","MEAN_ANOMALY":"309.8059","OBJECT_NAME":"STARLINK-1232","ECCENTRICITY":"0.00054010","TLE_LINE2":"2 45213  53.0543  75.1083 0005401  50.3426 309.8059 15.52509241174304","OBJECT_ID":"2020-012AM","PERIAPSIS":"405.739","MEAN_MOTION":"15.52509241","REV_AT_EPOCH":"17430","CLASSIFICATION_TYPE":"U","BSTAR":"0.00074459000000","ARG_OF_PERICENTER":"50.3426","RA_OF_ASC_NODE":"75.1083","PERIOD":"92.753","FILE":"3873921","NORAD_CAT_ID":"45213","INCLINATION":"53.0543","EPHEMERIS_TYPE":"0","EPOCH":"2023-03-28T16:35:23.412480","SITE":"AFETR","ELEMENT_SET_NO":"999","APOAPSIS":"413.071","GP_ID":"229064047","RCS_SIZE":"LARGE","LAUNCH_DATE":"2020-02-17","MEAN_ELEMENT_THEORY":"SGP4","DECAY_DATE":null,"MEAN_MOTION_DDOT":"0.0000000000000","REF_FRAME":"TEME","CENTER_NAME":"EARTH"},{"SITE":"AFETR","ELEMENT_SET_NO":"999","EPOCH":"2023-03-28T17:43:59.772864","EPHEMERIS_TYPE":"0","INCLINATION":"53.0512","NORAD_CAT_ID":"45214","FILE":"3873921","PERIOD":"95.582","RA_OF_ASC_NODE":"181.2315","ARG_OF_PERICENTER":"68.2314","BSTAR":"0.00285750000000","CLASSIFICATION_TYPE":"U","CENTER_NAME":"EARTH","REF_FRAME":"TEME","MEAN_MOTION_DDOT":"0.0000000000000","DECAY_DATE":null,"MEAN_ELEMENT_THEORY":"SGP4","LAUNCH_DATE":"2020-02-17","RCS_SIZE":"LARGE","GP_ID":"229063775","APOAPSIS":"547.507","ECCENTRICITY":"0.00011440","OBJECT_NAME":"STARLINK-1233","MEAN_ANOMALY":"291.8796","TIME_SYSTEM":"UTC","OBJECT_TYPE":"PAYLOAD","COUNTRY_CODE":"US","MEAN_MOTION_DOT":"0.00042728","SEMIMAJOR_AXIS":"6924.850","TLE_LINE1":"1 45214U 20012AN  23087.73888626  .00042728  00000-0  28575-2 0  9991","REV_AT_EPOCH":"17279","MEAN_MOTION":"15.06562799","PERIAPSIS":"545.922","OBJECT_ID":"2020-012AN","TLE_LINE2":"2 45214  53.0512 181.2315 0001144  68.2314 291.8796 15.06562799172797"},{"MEAN_ELEMENT_THEORY":"SGP4","DECAY_DATE":null,"MEAN_MOTION_DDOT":"0.0000000000000","APOAPSIS":"549.086","GP_ID":"229062547","RCS_SIZE":"LARGE","LAUNCH_DATE":"2020-02-17","REF_FRAME":"TEME","CENTER_NAME":"EARTH","RA_OF_ASC_NODE":"181.5458","PERIOD":"95.606","FILE":"3873921","BSTAR":"0.00324260000000","CLASSIFICATION_TYPE":"U","ARG_OF_PERICENTER":"76.8237","EPOCH":"2023-03-28T16:04:07.699584","ELEMENT_SET_NO":"999","SITE":"AFETR","INCLINATION":"53.0523","NORAD_CAT_ID":"45215","EPHEMERIS_TYPE":"0","TLE_LINE2":"2 45215  53.0523 181.5458 0001718  76.8237 283.2944 15.06177281172728","PERIAPSIS":"546.706","MEAN_MOTION":"15.06177281","REV_AT_EPOCH":"17272","OBJECT_ID":"2020-012AP","SEMIMAJOR_AXIS":"6926.031","OBJECT_TYPE":"PAYLOAD","COUNTRY_CODE":"US","MEAN_MOTION_DOT":"0.00048057","TIME_SYSTEM":"UTC","TLE_LINE1":"1 45215U 20012AP  23087.66953356  .00048057  00000-0  32426-2 0  9998","ECCENTRICITY":"0.00017180","MEAN_ANOMALY":"283.2944","OBJECT_NAME":"STARLINK-1245"},{"TLE_LINE1":"1 45217U 20012AR  23087.57768458  .00027785  00000-0  18718-2 0  9990","SEMIMAJOR_AXIS":"6925.042","TIME_SYSTEM":"UTC","OBJECT_TYPE":"PAYLOAD","COUNTRY_CODE":"US","MEAN_MOTION_DOT":"0.00027785","MEAN_ANOMALY":"269.3580","OBJECT_NAME":"STARLINK-1271","ECCENTRICITY":"0.00011510","TLE_LINE2":"2 45217  53.0527 181.9630 0001151  90.7541 269.3580 15.06500162172778","OBJECT_ID":"2020-012AR","PERIAPSIS":"546.110","MEAN_MOTION":"15.06500162","REV_AT_EPOCH":"17277","BSTAR":"0.00187180000000","CLASSIFICATION_TYPE":"U","ARG_OF_PERICENTER":"90.7541","RA_OF_ASC_NODE":"181.9630","FILE":"3873565","PERIOD":"95.586","NORAD_CAT_ID":"45217","INCLINATION":"53.0527","EPHEMERIS_TYPE":"0","EPOCH":"2023-03-28T13:51:51.947712","SITE":"AFETR","ELEMENT_SET_NO":"999","RCS_SIZE":"LARGE","APOAPSIS":"547.704","GP_ID":"229029402","LAUNCH_DATE":"2020-02-17","DECAY_DATE":null,"MEAN_ELEMENT_THEORY":"SGP4","MEAN_MOTION_DDOT":"0.0000000000000","REF_FRAME":"TEME","CENTER_NAME":"EARTH"},{"EPOCH":"2023-03-28T13:49:10.775424","SITE":"AFETR","ELEMENT_SET_NO":"999","NORAD_CAT_ID":"45219","INCLINATION":"53.0557","EPHEMERIS_TYPE":"0","RA_OF_ASC_NODE":"161.9735","FILE":"3873565","PERIOD":"95.592","CLASSIFICATION_TYPE":"U","BSTAR":"0.00066888000000","ARG_OF_PERICENTER":"58.2381","REF_FRAME":"TEME","CENTER_NAME":"EARTH","DECAY_DATE":null,"MEAN_ELEMENT_THEORY":"SGP4","MEAN_MOTION_DDOT":"0.0000000000000","RCS_SIZE":"LARGE","GP_ID":"229029653","APOAPSIS":"548.444","LAUNCH_DATE":"2020-02-17","ECCENTRICITY":"0.00017730","MEAN_ANOMALY":"301.8781","OBJECT_NAME":"STARLINK-1187","SEMIMAJOR_AXIS":"6925.351","TIME_SYSTEM":"UTC","COUNTRY_CODE":"US","OBJECT_TYPE":"PAYLOAD","MEAN_MOTION_DOT":"0.00009695","TLE_LINE1":"1 45219U 20012AT  23087.57581916  .00009695  00000-0  66888-3 0  9996","PERIAPSIS":"545.988","REV_AT_EPOCH":"17306","MEAN_MOTION":"15.06399167","OBJECT_ID":"2020-012AT","TLE_LINE2":"2 45219  53.0557 161.9735 0001773  58.2381 301.8781 15.06399167173067"},{"TLE_LINE2":"2 45221  53.0527 160.4653 0001065  96.2159 263.8951 15.06431538172164","OBJECT_ID":"2020-012AV","MEAN_MOTION":"15.06431538","REV_AT_EPOCH":"17216","PERIAPSIS":"546.379","TLE_LINE1":"1 45221U 20012AV  23087.91124196 -.00000677  00000-0 -26537-4 0  9991","COUNTRY_CODE":"US","MEAN_MOTION_DOT":"-0.00000677","OBJECT_TYPE":"PAYLOAD","TIME_SYSTEM":"UTC","SEMIMAJOR_AXIS":"6925.252","OBJECT_NAME":"STARLINK-1189","MEAN_ANOMALY":"263.8951","ECCENTRICITY":"0.00010650","LAUNCH_DATE":"2020-02-17","GP_ID":"229040321","APOAPSIS":"547.854","RCS_SIZE":"LARGE","MEAN_MOTION_DDOT":"0.0000000000000","MEAN_ELEMENT_THEORY":"SGP4","DECAY_DATE":null,"REF_FRAME":"TEME","CENTER_NAME":"EARTH","ARG_OF_PERICENTER":"96.2159","CLASSIFICATION_TYPE":"U","BSTAR":"-0.00002653700000","PERIOD":"95.590","FILE":"3873769","RA_OF_ASC_NODE":"160.4653","EPHEMERIS_TYPE":"0","NORAD_CAT_ID":"45221","INCLINATION":"53.0527","ELEMENT_SET_NO":"999","SITE":"AFETR","EPOCH":"2023-03-28T21:52:11.305344"}];
